IRIDIUM 39              
1 25042U 97069D   25217.22053414  .00000584  00000+0  14737-3 0  9993
2 25042  86.3946 190.1190 0019269 137.5179 222.7520 14.49266197456321
IRIDIUM 38              
1 25043U 97069E   25216.94360237  .00000401  00000+0  12583-3 0  9991
2 25043  86.3955 212.6456 0001110  29.8886 330.2375 14.38149220452965
IRIDIUM 42              
1 25077U 97077A   25217.07936722  .00000375  00000+0  12145-3 0  9994
2 25077  86.3951 218.8162 0001821  71.1297 289.0097 14.36381796448214
IRIDIUM 44              
1 25078U 97077B   25216.90188123  .00000411  00000+0  12366-3 0  9996
2 25078  86.3974 200.6965 0001488 143.9793 216.1506 14.40272587450714
IRIDIUM 45              
1 25104U 97082A   25217.53165138  .00022735  00000+0  77933-3 0  9997
2 25104  86.3570  23.8961 0114594 145.8650 215.0035 15.23882963459804
IRIDIUM 24              
1 25105U 97082B   25217.08972227  .00000404  00000+0  11673-3 0  9991
2 25105  86.3863  59.5459 0009280 278.6449  81.3699 14.42135256450519
IRIDIUM 51              
1 25262U 98018A   25217.05646260  .00035781  00000+0  71836-3 0  9990
2 25262  86.3803  31.5724 0082549  62.6206 298.3418 15.42794341454771
IRIDIUM 57              
1 25273U 98019B   25217.44035260  .00000255  00000+0  81171-4 0  9990
2 25273  86.3982 124.6349 0002086  84.6158 275.5277 14.35920397432067
