<?xml version="1.0" encoding="UTF-8"?>
<ndm xmlns:xsi="http://www.w3.org/2001/XMLSchema-instance" xsi:noNamespaceSchemaLocation="https://sanaregistry.org/r/ndmxml_unqualified/ndmxml-2.0.0-master-2.0.xsd">
<omm id="CCSDS_OMM_VERS" version="2.0">
<header><CREATION_DATE/><ORIGINATOR/></header><body><segment><metadata><OBJECT_NAME>IRIDIUM 39</OBJECT_NAME><OBJECT_ID>1997-069D</OBJECT_ID><CENTER_NAME>EARTH</CENTER_NAME><REF_FRAME>TEME</REF_FRAME><TIME_SYSTEM>UTC</TIME_SYSTEM><MEAN_ELEMENT_THEORY>SGP4</MEAN_ELEMENT_THEORY></metadata><data><meanElements><EPOCH>2025-08-05T05:17:34.149696</EPOCH><MEAN_MOTION>14.49266197</MEAN_MOTION><ECCENTRICITY>.0019269</ECCENTRICITY><INCLINATION>86.3946</INCLINATION><RA_OF_ASC_NODE>190.1190</RA_OF_ASC_NODE><ARG_OF_PERICENTER>137.5179</ARG_OF_PERICENTER><MEAN_ANOMALY>222.7520</MEAN_ANOMALY></meanElements><tleParameters><EPHEMERIS_TYPE>0</EPHEMERIS_TYPE><CLASSIFICATION_TYPE>U</CLASSIFICATION_TYPE><NORAD_CAT_ID>25042</NORAD_CAT_ID><ELEMENT_SET_NO>999</ELEMENT_SET_NO><REV_AT_EPOCH>45632</REV_AT_EPOCH><BSTAR>.14737E-3</BSTAR><MEAN_MOTION_DOT>.584E-5</MEAN_MOTION_DOT><MEAN_MOTION_DDOT>0</MEAN_MOTION_DDOT></tleParameters></data></segment></body></omm>
<omm id="CCSDS_OMM_VERS" version="2.0">
<header><CREATION_DATE/><ORIGINATOR/></header><body><segment><metadata><OBJECT_NAME>IRIDIUM 38</OBJECT_NAME><OBJECT_ID>1997-069E</OBJECT_ID><CENTER_NAME>EARTH</CENTER_NAME><REF_FRAME>TEME</REF_FRAME><TIME_SYSTEM>UTC</TIME_SYSTEM><MEAN_ELEMENT_THEORY>SGP4</MEAN_ELEMENT_THEORY></metadata><data><meanElements><EPOCH>2025-08-04T22:38:47.244768</EPOCH><MEAN_MOTION>14.38149220</MEAN_MOTION><ECCENTRICITY>.000111</ECCENTRICITY><INCLINATION>86.3955</INCLINATION><RA_OF_ASC_NODE>212.6456</RA_OF_ASC_NODE><ARG_OF_PERICENTER>29.8886</ARG_OF_PERICENTER><MEAN_ANOMALY>330.2375</MEAN_ANOMALY></meanElements><tleParameters><EPHEMERIS_TYPE>0</EPHEMERIS_TYPE><CLASSIFICATION_TYPE>U</CLASSIFICATION_TYPE><NORAD_CAT_ID>25043</NORAD_CAT_ID><ELEMENT_SET_NO>999</ELEMENT_SET_NO><REV_AT_EPOCH>45296</REV_AT_EPOCH><BSTAR>.12583E-3</BSTAR><MEAN_MOTION_DOT>.401E-5</MEAN_MOTION_DOT><MEAN_MOTION_DDOT>0</MEAN_MOTION_DDOT></tleParameters></data></segment></body></omm>
<omm id="CCSDS_OMM_VERS" version="2.0">
<header><CREATION_DATE/><ORIGINATOR/></header><body><segment><metadata><OBJECT_NAME>IRIDIUM 42</OBJECT_NAME><OBJECT_ID>1997-077A</OBJECT_ID><CENTER_NAME>EARTH</CENTER_NAME><REF_FRAME>TEME</REF_FRAME><TIME_SYSTEM>UTC</TIME_SYSTEM><MEAN_ELEMENT_THEORY>SGP4</MEAN_ELEMENT_THEORY></metadata><data><meanElements><EPOCH>2025-08-05T01:54:17.327808</EPOCH><MEAN_MOTION>14.36381796</MEAN_MOTION><ECCENTRICITY>.0001821</ECCENTRICITY><INCLINATION>86.3951</INCLINATION><RA_OF_ASC_NODE>218.8162</RA_OF_ASC_NODE><ARG_OF_PERICENTER>71.1297</ARG_OF_PERICENTER><MEAN_ANOMALY>289.0097</MEAN_ANOMALY></meanElements><tleParameters><EPHEMERIS_TYPE>0</EPHEMERIS_TYPE><CLASSIFICATION_TYPE>U</CLASSIFICATION_TYPE><NORAD_CAT_ID>25077</NORAD_CAT_ID><ELEMENT_SET_NO>999</ELEMENT_SET_NO><REV_AT_EPOCH>44821</REV_AT_EPOCH><BSTAR>.12145E-3</BSTAR><MEAN_MOTION_DOT>.375E-5</MEAN_MOTION_DOT><MEAN_MOTION_DDOT>0</MEAN_MOTION_DDOT></tleParameters></data></segment></body></omm>
<omm id="CCSDS_OMM_VERS" version="2.0">
<header><CREATION_DATE/><ORIGINATOR/></header><body><segment><metadata><OBJECT_NAME>IRIDIUM 44</OBJECT_NAME><OBJECT_ID>1997-077B</OBJECT_ID><CENTER_NAME>EARTH</CENTER_NAME><REF_FRAME>TEME</REF_FRAME><TIME_SYSTEM>UTC</TIME_SYSTEM><MEAN_ELEMENT_THEORY>SGP4</MEAN_ELEMENT_THEORY></metadata><data><meanElements><EPOCH>2025-08-04T21:38:42.538272</EPOCH><MEAN_MOTION>14.40272587</MEAN_MOTION><ECCENTRICITY>.0001488</ECCENTRICITY><INCLINATION>86.3974</INCLINATION><RA_OF_ASC_NODE>200.6965</RA_OF_ASC_NODE><ARG_OF_PERICENTER>143.9793</ARG_OF_PERICENTER><MEAN_ANOMALY>216.1506</MEAN_ANOMALY></meanElements><tleParameters><EPHEMERIS_TYPE>0</EPHEMERIS_TYPE><CLASSIFICATION_TYPE>U</CLASSIFICATION_TYPE><NORAD_CAT_ID>25078</NORAD_CAT_ID><ELEMENT_SET_NO>999</ELEMENT_SET_NO><REV_AT_EPOCH>45071</REV_AT_EPOCH><BSTAR>.12366E-3</BSTAR><MEAN_MOTION_DOT>.411E-5</MEAN_MOTION_DOT><MEAN_MOTION_DDOT>0</MEAN_MOTION_DDOT></tleParameters></data></segment></body></omm>
<omm id="CCSDS_OMM_VERS" version="2.0">
<header><CREATION_DATE/><ORIGINATOR/></header><body><segment><metadata><OBJECT_NAME>IRIDIUM 45</OBJECT_NAME><OBJECT_ID>1997-082A</OBJECT_ID><CENTER_NAME>EARTH</CENTER_NAME><REF_FRAME>TEME</REF_FRAME><TIME_SYSTEM>UTC</TIME_SYSTEM><MEAN_ELEMENT_THEORY>SGP4</MEAN_ELEMENT_THEORY></metadata><data><meanElements><EPOCH>2025-08-05T12:45:34.679232</EPOCH><MEAN_MOTION>15.23882963</MEAN_MOTION><ECCENTRICITY>.0114594</ECCENTRICITY><INCLINATION>86.3570</INCLINATION><RA_OF_ASC_NODE>23.8961</RA_OF_ASC_NODE><ARG_OF_PERICENTER>145.8650</ARG_OF_PERICENTER><MEAN_ANOMALY>215.0035</MEAN_ANOMALY></meanElements><tleParameters><EPHEMERIS_TYPE>0</EPHEMERIS_TYPE><CLASSIFICATION_TYPE>U</CLASSIFICATION_TYPE><NORAD_CAT_ID>25104</NORAD_CAT_ID><ELEMENT_SET_NO>999</ELEMENT_SET_NO><REV_AT_EPOCH>45980</REV_AT_EPOCH><BSTAR>.77933E-3</BSTAR><MEAN_MOTION_DOT>.22735E-3</MEAN_MOTION_DOT><MEAN_MOTION_DDOT>0</MEAN_MOTION_DDOT></tleParameters></data></segment></body></omm>
<omm id="CCSDS_OMM_VERS" version="2.0">
<header><CREATION_DATE/><ORIGINATOR/></header><body><segment><metadata><OBJECT_NAME>IRIDIUM 24</OBJECT_NAME><OBJECT_ID>1997-082B</OBJECT_ID><CENTER_NAME>EARTH</CENTER_NAME><REF_FRAME>TEME</REF_FRAME><TIME_SYSTEM>UTC</TIME_SYSTEM><MEAN_ELEMENT_THEORY>SGP4</MEAN_ELEMENT_THEORY></metadata><data><meanElements><EPOCH>2025-08-05T02:09:12.004128</EPOCH><MEAN_MOTION>14.42135256</MEAN_MOTION><ECCENTRICITY>.000928</ECCENTRICITY><INCLINATION>86.3863</INCLINATION><RA_OF_ASC_NODE>59.5459</RA_OF_ASC_NODE><ARG_OF_PERICENTER>278.6449</ARG_OF_PERICENTER><MEAN_ANOMALY>81.3699</MEAN_ANOMALY></meanElements><tleParameters><EPHEMERIS_TYPE>0</EPHEMERIS_TYPE><CLASSIFICATION_TYPE>U</CLASSIFICATION_TYPE><NORAD_CAT_ID>25105</NORAD_CAT_ID><ELEMENT_SET_NO>999</ELEMENT_SET_NO><REV_AT_EPOCH>45051</REV_AT_EPOCH><BSTAR>.11673E-3</BSTAR><MEAN_MOTION_DOT>.404E-5</MEAN_MOTION_DOT><MEAN_MOTION_DDOT>0</MEAN_MOTION_DDOT></tleParameters></data></segment></body></omm>
<omm id="CCSDS_OMM_VERS" version="2.0">
<header><CREATION_DATE/><ORIGINATOR/></header><body><segment><metadata><OBJECT_NAME>IRIDIUM 51</OBJECT_NAME><OBJECT_ID>1998-018A</OBJECT_ID><CENTER_NAME>EARTH</CENTER_NAME><REF_FRAME>TEME</REF_FRAME><TIME_SYSTEM>UTC</TIME_SYSTEM><MEAN_ELEMENT_THEORY>SGP4</MEAN_ELEMENT_THEORY></metadata><data><meanElements><EPOCH>2025-08-05T01:21:18.368640</EPOCH><MEAN_MOTION>15.42794341</MEAN_MOTION><ECCENTRICITY>.0082549</ECCENTRICITY><INCLINATION>86.3803</INCLINATION><RA_OF_ASC_NODE>31.5724</RA_OF_ASC_NODE><ARG_OF_PERICENTER>62.6206</ARG_OF_PERICENTER><MEAN_ANOMALY>298.3418</MEAN_ANOMALY></meanElements><tleParameters><EPHEMERIS_TYPE>0</EPHEMERIS_TYPE><CLASSIFICATION_TYPE>U</CLASSIFICATION_TYPE><NORAD_CAT_ID>25262</NORAD_CAT_ID><ELEMENT_SET_NO>999</ELEMENT_SET_NO><REV_AT_EPOCH>45477</REV_AT_EPOCH><BSTAR>.71836E-3</BSTAR><MEAN_MOTION_DOT>.35781E-3</MEAN_MOTION_DOT><MEAN_MOTION_DDOT>0</MEAN_MOTION_DDOT></tleParameters></data></segment></body></omm>
<omm id="CCSDS_OMM_VERS" version="2.0">
<header><CREATION_DATE/><ORIGINATOR/></header><body><segment><metadata><OBJECT_NAME>IRIDIUM 57</OBJECT_NAME><OBJECT_ID>1998-019B</OBJECT_ID><CENTER_NAME>EARTH</CENTER_NAME><REF_FRAME>TEME</REF_FRAME><TIME_SYSTEM>UTC</TIME_SYSTEM><MEAN_ELEMENT_THEORY>SGP4</MEAN_ELEMENT_THEORY></metadata><data><meanElements><EPOCH>2025-08-05T10:34:06.464640</EPOCH><MEAN_MOTION>14.35920397</MEAN_MOTION><ECCENTRICITY>.0002086</ECCENTRICITY><INCLINATION>86.3982</INCLINATION><RA_OF_ASC_NODE>124.6349</RA_OF_ASC_NODE><ARG_OF_PERICENTER>84.6158</ARG_OF_PERICENTER><MEAN_ANOMALY>275.5277</MEAN_ANOMALY></meanElements><tleParameters><EPHEMERIS_TYPE>0</EPHEMERIS_TYPE><CLASSIFICATION_TYPE>U</CLASSIFICATION_TYPE><NORAD_CAT_ID>25273</NORAD_CAT_ID><ELEMENT_SET_NO>999</ELEMENT_SET_NO><REV_AT_EPOCH>43206</REV_AT_EPOCH><BSTAR>.81171E-4</BSTAR><MEAN_MOTION_DOT>.255E-5</MEAN_MOTION_DOT><MEAN_MOTION_DDOT>0</MEAN_MOTION_DDOT></tleParameters></data></segment></body></omm>

</ndm>
